{"type": "FeatureCollection", "features": [ {"type": "Feature", "properties": {"norad_id": 32260, "name": "GPS BIIRM-4 (PRN 15)", "group": "gnss", "lat": 53.80289959878825, "lon": -175.67976718677392, "alt_km": 19744.70389055823, "timestamp": "2025-12-06T09:34:17.155945+00:00", "meta": {"OBJECT_NAME": "GPS BIIRM-4 (PRN 15)", "OBJECT_ID": "2007-047A", "EPOCH": "2025-12-05T06:35:49.168896", "MEAN_MOTION": 2.0056471, "ECCENTRICITY": 0.01643532, "INCLINATION": 53.9502, "RA_OF_ASC_NODE": 88.0669, "ARG_OF_PERICENTER": 85.1619, "MEAN_ANOMALY": 276.6895, "EPHEMERIS_TYPE": 0, "CLASSIFICATION_TYPE": "U", "NORAD_CAT_ID": 32260, "ELEMENT_SET_NO": 999, "REV_AT_EPOCH": 13292, "BSTAR": 0, "MEAN_MOTION_DOT": -2.6e-07, "MEAN_MOTION_DDOT": 0}, "tle": {"line1": "1 32260U 07047A   25339.27487464 -.00000026  00000+0  00000+0 0  9992", "line2": "2 32260  53.9502  88.0669 0164353  85.1619 276.6895  2.00564710132923"}}, "geometry": {"type": "Point", "coordinates": [-175.67976718677392, 53.80289959878825]}}, {"type": "Feature", "properties": {"norad_id": 32275, "name": "COSMOS 2433 (720)", "group": "gnss", "lat": -65.52089903454788, "lon": -134.37624939502516, "alt_km": 19122.78957841876, "timestamp": "2025-12-06T09:34:17.155957+00:00", "meta": {"OBJECT_NAME": "COSMOS 2433 (720)", "OBJECT_ID": "2007-052A", "EPOCH": "2025-12-05T02:41:16.127808", "MEAN_MOTION": 2.1310391, "ECCENTRICITY": 0.00054971, "INCLINATION": 65.6874, "RA_OF_ASC_NODE": 322.462, "ARG_OF_PERICENTER": 253.0747, "MEAN_ANOMALY": 106.8638, "EPHEMERIS_TYPE": 0, "CLASSIFICATION_TYPE": "U", "NORAD_CAT_ID": 32275, "ELEMENT_SET_NO": 999, "REV_AT_EPOCH": 14092, "BSTAR": 0, "MEAN_MOTION_DOT": -4.7e-07, "MEAN_MOTION_DDOT": 0}, "tle": {"line1": "1 32275U 07052A   25339.11199222 -.00000047  00000+0  00000+0 0  9992", "line2": "2 32275  65.6874 322.4620 0005497 253.0747 106.8638  2.13103910140927"}}, "geometry": {"type": "Point", "coordinates": [-134.37624939502516, -65.52089903454788]}}, {"type": "Feature", "properties": {"norad_id": 32276, "name": "COSMOS 2432 (719)", "group": "gnss", "lat": -28.4893756172718, "lon": 156.72404444142524, "alt_km": 19138.73016717946, "timestamp": "2025-12-06T09:34:17.155969+00:00", "meta": {"OBJECT_NAME": "COSMOS 2432 (719)", "OBJECT_ID": "2007-052B", "EPOCH": "2025-12-04T17:08:15.006912", "MEAN_MOTION": 2.13103047, "ECCENTRICITY": 0.00112577, "INCLINATION": 65.7035, "RA_OF_ASC_NODE": 322.5994, "ARG_OF_PERICENTER": 311.684, "MEAN_ANOMALY": 47.4656, "EPHEMERIS_TYPE": 0, "CLASSIFICATION_TYPE": "U", "NORAD_CAT_ID": 32276, "ELEMENT_SET_NO": 999, "REV_AT_EPOCH": 14093, "BSTAR": 0, "MEAN_MOTION_DOT": -4.6e-07, "MEAN_MOTION_DDOT": 0}, "tle": {"line1": "1 32276U 07052B   25338.71406258 -.00000046  00000+0  00000+0 0  9997", "line2": "2 32276  65.7035 322.5994 0011257 311.6840  47.4656  2.13103047140931"}}, "geometry": {"type": "Point", "coordinates": [156.72404444142524, -28.4893756172718]}}, {"type": "Feature", "properties": {"norad_id": 32384, "name": "GPS BIIRM-5 (PRN 29)", "group": "gnss", "lat": -33.857583523463276, "lon": 129.6667574281568, "alt_km": 20142.220752727124, "timestamp": "2025-12-06T09:34:17.155981+00:00", "meta": {"OBJECT_NAME": "GPS BIIRM-5 (PRN 29)", "OBJECT_ID": "2007-062A", "EPOCH": "2025-12-05T07:59:29.428800", "MEAN_MOTION": 2.00576795, "ECCENTRICITY": 0.00322138, "INCLINATION": 55.1888, "RA_OF_ASC_NODE": 281.943, "ARG_OF_PERICENTER": 162.7364, "MEAN_ANOMALY": 9.9869, "EPHEMERIS_TYPE": 0, "CLASSIFICATION_TYPE": "U", "NORAD_CAT_ID": 32384, "ELEMENT_SET_NO": 999, "REV_AT_EPOCH": 13162, "BSTAR": 0, "MEAN_MOTION_DOT": -3.8e-07, "MEAN_MOTION_DDOT": 0}, "tle": {"line1": "1 32384U 07062A   25339.33297950 -.00000038  00000+0  00000+0 0  9995", "line2": "2 32384  55.1888 281.9430 0032213 162.7364   9.9869  2.00576795131629"}}, "geometry": {"type": "Point", "coordinates": [129.6667574281568, -33.857583523463276]}}, {"type": "Feature", "properties": {"norad_id": 32393, "name": "COSMOS 2434 (721)", "group": "gnss", "lat": 19.887275632168606, "lon": 8.39504884993171, "alt_km": 19127.239106832378, "timestamp": "2025-12-06T09:34:17.155993+00:00", "meta": {"OBJECT_NAME": "COSMOS 2434 (721)", "OBJECT_ID": "2007-065A", "EPOCH": "2025-12-05T10:54:52.087392", "MEAN_MOTION": 2.1310119, "ECCENTRICITY": 0.00044378, "INCLINATION": 64.3147, "RA_OF_ASC_NODE": 198.4493, "ARG_OF_PERICENTER": 70.9033, "MEAN_ANOMALY": 82.6626, "EPHEMERIS_TYPE": 0, "CLASSIFICATION_TYPE": "U", "NORAD_CAT_ID": 32393, "ELEMENT_SET_NO": 999, "REV_AT_EPOCH": 13964, "BSTAR": 0, "MEAN_MOTION_DOT": 8.7e-07, "MEAN_MOTION_DDOT": 0}, "tle": {"line1": "1 32393U 07065A   25339.45476953  .00000087  00000+0  00000+0 0  9996", "line2": "2 32393  64.3147 198.4493 0004437  70.9033  82.6626  2.13101190139646"}}, "geometry": {"type": "Point", "coordinates": [8.39504884993171, 19.887275632168606]}}, {"type": "Feature", "properties": {"norad_id": 32395, "name": "COSMOS 2436 (723)", "group": "gnss", "lat": -57.49299502943359, "lon": 149.47056555707553, "alt_km": 19127.141807754895, "timestamp": "2025-12-06T09:34:17.156005+00:00", "meta": {"OBJECT_NAME": "COSMOS 2436 (723)", "OBJECT_ID": "2007-065C", "EPOCH": "2025-12-05T01:59:21.660576", "MEAN_MOTION": 2.13099981, "ECCENTRICITY": 0.00177317, "INCLINATION": 64.3234, "RA_OF_ASC_NODE": 198.532, "ARG_OF_PERICENTER": 8.9856, "MEAN_ANOMALY": 352.3973, "EPHEMERIS_TYPE": 0, "CLASSIFICATION_TYPE": "U", "NORAD_CAT_ID": 32395, "ELEMENT_SET_NO": 999, "REV_AT_EPOCH": 13959, "BSTAR": 0, "MEAN_MOTION_DOT": 9.2e-07, "MEAN_MOTION_DDOT": 0}, "tle": {"line1": "1 32395U 07065C   25339.08288959  .00000092  00000+0  00000+0 0  9990", "line2": "2 32395  64.3234 198.5320 0017731   8.9856 352.3973  2.13099981139590"}}, "geometry": {"type": "Point", "coordinates": [149.47056555707553, -57.49299502943359]}}, {"type": "Feature", "properties": {"norad_id": 32711, "name": "GPS BIIRM-6 (PRN 07)", "group": "gnss", "lat": 28.0328550441217, "lon": -44.75074053069816, "alt_km": 20263.47655632165, "timestamp": "2025-12-06T09:34:17.156022+00:00", "meta": {"OBJECT_NAME": "GPS BIIRM-6 (PRN 07)", "OBJECT_ID": "2008-012A", "EPOCH": "2025-12-05T16:39:04.632768", "MEAN_MOTION": 2.00565224, "ECCENTRICITY": 0.02021668, "INCLINATION": 54.476, "RA_OF_ASC_NODE": 157.6542, "ARG_OF_PERICENTER": 244.8708, "MEAN_ANOMALY": 113.0379, "EPHEMERIS_TYPE": 0, "CLASSIFICATION_TYPE": "U", "NORAD_CAT_ID": 32711, "ELEMENT_SET_NO": 999, "REV_AT_EPOCH": 12987, "BSTAR": 0, "MEAN_MOTION_DOT": 7e-07, "MEAN_MOTION_DDOT": 0}, "tle": {"line1": "1 32711U 08012A   25339.69380362  .00000070  00000+0  00000+0 0  9999", "line2": "2 32711  54.4760 157.6542 0202166 244.8708 113.0379  2.00565224129879"}}, "geometry": {"type": "Point", "coordinates": [-44.75074053069816, 28.0328550441217]}}, {"type": "Feature", "properties": {"norad_id": 35752, "name": "GPS BIIRM-8 (PRN 05)", "group": "gnss", "lat": 10.277088152336196, "lon": -151.94673920362058, "alt_km": 20169.2819786296, "timestamp": "2025-12-06T09:34:17.156066+00:00", "meta": {"OBJECT_NAME": "GPS BIIRM-8 (PRN 05)", "OBJECT_ID": "2009-043A", "EPOCH": "2025-12-01T04:42:32.815296", "MEAN_MOTION": 2.00566259, "ECCENTRICITY": 0.00521242, "INCLINATION": 56.0822, "RA_OF_ASC_NODE": 35.2386, "ARG_OF_PERICENTER": 82.0997, "MEAN_ANOMALY": 288.3285, "EPHEMERIS_TYPE": 0, "CLASSIFICATION_TYPE": "U", "NORAD_CAT_ID": 35752, "ELEMENT_SET_NO": 999, "REV_AT_EPOCH": 11939, "BSTAR": 0, "MEAN_MOTION_DOT": -6.6e-07, "MEAN_MOTION_DDOT": 0}, "tle": {"line1": "1 35752U 09043A   25335.19621314 -.00000066  00000+0  00000+0 0  9994", "line2": "2 35752  56.0822  35.2386 0052124  82.0997 288.3285  2.00566259119397"}}, "geometry": {"type": "Point", "coordinates": [-151.94673920362058, 10.277088152336196]}}, {"type": "Feature", "properties": {"norad_id": 36111, "name": "COSMOS 2456 (730)", "group": "gnss", "lat": -39.951141665733154, "lon": 54.47992127445135, "alt_km": 19127.94716471351, "timestamp": "2025-12-06T09:34:17.156096+00:00", "meta": {"OBJECT_NAME": "COSMOS 2456 (730)", "OBJECT_ID": "2009-070A", "EPOCH": "2025-12-02T04:31:21.819072", "MEAN_MOTION": 2.13103415, "ECCENTRICITY": 0.0002798, "INCLINATION": 64.8943, "RA_OF_ASC_NODE": 77.6987, "ARG_OF_PERICENTER": 298.3251, "MEAN_ANOMALY": 26.4531, "EPHEMERIS_TYPE": 0, "CLASSIFICATION_TYPE": "U", "NORAD_CAT_ID": 36111, "ELEMENT_SET_NO": 999, "REV_AT_EPOCH": 12422, "BSTAR": 0, "MEAN_MOTION_DOT": -2.2e-07, "MEAN_MOTION_DDOT": 0}, "tle": {"line1": "1 36111U 09070A   25336.18844698 -.00000022  00000+0  00000+0 0  9998", "line2": "2 36111  64.8943  77.6987 0002798 298.3251  26.4531  2.13103415124220"}}, "geometry": {"type": "Point", "coordinates": [54.47992127445135, -39.951141665733154]}}, {"type": "Feature", "properties": {"norad_id": 36112, "name": "COSMOS 2457 (733)", "group": "gnss", "lat": 64.2447178977626, "lon": 153.50638930723932, "alt_km": 19119.425327090215, "timestamp": "2025-12-06T09:34:17.156110+00:00", "meta": {"OBJECT_NAME": "COSMOS 2457 (733)", "OBJECT_ID": "2009-070B", "EPOCH": "2025-12-04T10:10:53.328576", "MEAN_MOTION": 2.13100784, "ECCENTRICITY": 0.00048679, "INCLINATION": 64.8808, "RA_OF_ASC_NODE": 77.4701, "ARG_OF_PERICENTER": 156.7423, "MEAN_ANOMALY": 212.4815, "EPHEMERIS_TYPE": 0, "CLASSIFICATION_TYPE": "U", "NORAD_CAT_ID": 36112, "ELEMENT_SET_NO": 999, "REV_AT_EPOCH": 12428, "BSTAR": 0, "MEAN_MOTION_DOT": -2.6e-07, "MEAN_MOTION_DDOT": 0}, "tle": {"line1": "1 36112U 09070B   25338.42422834 -.00000026  00000+0  00000+0 0  9996", "line2": "2 36112  64.8808  77.4701 0004867 156.7423 212.4815  2.13100784124284"}}, "geometry": {"type": "Point", "coordinates": [153.50638930723932, 64.2447178977626]}}]}